GLOBALSTAR M069         
1 31573U 07020C   26176.54387613 -.00000060  00000+0  30421-3 0  9996
2 31573  52.0009 228.4743 0002148 166.3867 341.7045 12.23471416879828
GLOBALSTAR M072         
1 31574U 07020D   26176.46486613 -.00000091  00000+0 -89579-4 0  9992
2 31574  51.9936  78.2079 0001512 352.3762 179.1991 11.91658400875962
GLOBALSTAR M066         
1 32265U 07048C   26176.38700971 -.00000138  00000+0 -36530-3 0  9997
2 32265  51.9609  34.3736 0005611  61.6739 109.5658 12.30386841861231
GLOBALSTAR M079         
1 37188U 10054A   26176.47493050 -.00000108  00000+0 -26048-4 0  9995
2 37188  52.0044  83.4407 0000889  42.0305 129.8316 12.62266214723597
GLOBALSTAR M074         
1 37189U 10054B   26176.50103204 -.00000113  00000+0 -53701-4 0  9991
2 37189  52.0023  82.6248 0000717  63.8298 107.0045 12.62268400724206
GLOBALSTAR M076         
1 37190U 10054C   26176.52752744 -.00000111  00000+0 -40197-4 0  9997
2 37190  52.0029  82.7480 0000905  58.2701 112.8993 12.62261924723927
GLOBALSTAR M077         
1 37191U 10054D   26176.24410177 -.00000056  00000+0  39343-3 0  9995
2 37191  51.9922 158.8450 0002604 187.2661 185.5935 11.67547923722085
GLOBALSTAR M075         
1 37192U 10054E   26176.04539192 -.00000112  00000+0 -46935-4 0  9993
2 37192  51.9942 126.2657 0000349  31.8594  47.4282 12.62267339722930
GLOBALSTAR M073         
1 37193U 10054F   26176.58718189 -.00000096  00000+0  41871-4 0  9992
2 37193  52.0075  38.7233 0001051  64.7529 316.1536 12.62266608724995
GLOBALSTAR M083         
1 37739U 11033A   26176.52494381 -.00000081  00000+0  12691-3 0  9996
2 37739  51.9878 347.1295 0000959  80.4474 318.9055 12.62263506694003
GLOBALSTAR M088         
1 37740U 11033B   26176.51320928 -.00000090  00000+0  74232-4 0  9992
2 37740  52.0206 253.6154 0000526 139.3657 325.0876 12.62268953689548
GLOBALSTAR M091         
1 37741U 11033C   26176.53914013 -.00000086  00000+0  10043-3 0  9993
2 37741  51.9971 216.4889 0000098 171.3227 351.8930 12.62264039690339
GLOBALSTAR M085         
1 37742U 11033D   26176.25526101 -.00000088  00000+0  89504-4 0  9991
2 37742  52.0098 168.6506 0000291 348.6823  23.9856 12.62264159690812
GLOBALSTAR M081         
1 37743U 11033E   26176.30163250 -.00000083  00000+0  11329-3 0  9994
2 37743  51.9929 170.9365 0000202  37.6637  65.5240 12.62265188690961
GLOBALSTAR M089         
1 37744U 11033F   26176.18285414 -.00000098  00000+0  31434-4 0  9994
2 37744  51.9917 125.4549 0000452  77.9696  26.1481 12.62267366691799
GLOBALSTAR M084         
1 38040U 11080A   26176.21079574 -.00000094  00000+0  52655-4 0  9992
2 38040  52.0028 352.8554 0001102  98.7293  72.3476 12.62267622669778
GLOBALSTAR M080         
1 38041U 11080B   26176.26141801 -.00000089  00000+0  82268-4 0  9998
2 38041  52.0082 354.4223 0000417  77.3246  93.9911 12.62269634669902
GLOBALSTAR M082         
1 38042U 11080C   26175.16821816 -.00000097  00000+0  38092-4 0  9993
2 38042  52.0092 313.2519 0000497 104.5113  66.5940 12.62263716670476
GLOBALSTAR M092         
1 38043U 11080D   26176.40909264 -.00000101  00000+0  14583-4 0  9991
2 38043  52.0097  39.8721 0000806  75.1505  96.5278 12.62267078669087
GLOBALSTAR M090         
1 38044U 11080E   26176.52046079 -.00000109  00000+0 -30554-4 0  9996
2 38044  52.0136 303.0943 0000731 101.8035 336.2519 12.62269056670763
GLOBALSTAR M086         
1 38045U 11080F   26176.54251228 -.00000091  00000+0  73196-4 0  9991
2 38045  51.9916 302.9438 0001689  81.6740 358.1987 12.62287048670714
GLOBALSTAR M097         
1 39072U 13005A   26176.47728501 -.00000079  00000+0  13769-3 0  9991
2 39072  52.0019 218.1017 0000142 105.8377 254.2505 12.62271181617950
GLOBALSTAR M093         
1 39073U 13005B   26176.52961704 -.00000082  00000+0  12298-3 0  9992
2 39073  52.0076 211.2911 0000203  44.3026 315.7857 12.62266042617916
GLOBALSTAR M094         
1 39074U 13005C   26176.52949078 -.00000114  00000+0 -55510-4 0  9995
2 39074  51.9943 125.3982 0000622  24.6815 335.4082 12.62268505619527
GLOBALSTAR M096         
1 39075U 13005D   26176.30543912 -.00000112  00000+0 -45624-4 0  9992
2 39075  52.0052 174.8893 0000239 356.8696   3.2169 12.62265642618414
GLOBALSTAR M078         
1 39076U 13005E   26176.51604921 -.00000004  00000+0  55604-3 0  9991
2 39076  51.9868 258.2477 0000485 265.2858  94.7953 12.62259319617069
GLOBALSTAR M095         
1 39077U 13005F   26176.46358826 -.00000093  00000+0  58773-4 0  9995
2 39077  52.0077 256.0234 0000077 114.0594 246.0281 12.62263562616910
GLOBALSTAR M087         
1 52888U 22064A   26176.55597236 -.00000099  00000+0  25710-4 0  9996
2 52888  52.0010  36.9744 0000876  55.2810 304.8139 12.62269218192195
